{
  "type": "FeatureCollection",
  "features": [
    {
      "type": "Feature",
      "geometry": {
        "type": "Polygon",
        "coordinates": [
          [
            [
              0.44545295946951186,
              0.3118584849847057
            ],
            [
              0.6101033790679623,
              0.3118584849847057
            ],
            [
              0.6101033790679623,
              0.783084745399896
            ],
            [
              0.44545295946951186,
              0.783084745399896
            ],
            [
              0.44545295946951186,
              0.3118584849847057
            ]
          ]
        ]
      },
      "properties": {
        "category": "person",
        "confidence": 0.6163215041160583,
        "class_id": 0,
        "bbox": [
          968.4147338867188,
          412.5887756347656,
          1326.36474609375,
          1036.0211181640625
        ]
      }
    }
  ],
  "metadata": {
    "model": "zero_shot_coco",
    "num_detections": 1,
    "image_path": "/tmp/tmplvd32jci.png"
  }
}