{
  "type": "FeatureCollection",
  "features": [
    {
      "type": "Feature",
      "geometry": {
        "type": "Polygon",
        "coordinates": [
          [
            [
              0.009263280782550436,
              0.7997020856953893
            ],
            [
              0.19268061858092084,
              0.7997020856953893
            ],
            [
              0.19268061858092084,
              0.8363261320153061
            ],
            [
              0.009263280782550436,
              0.8363261320153061
            ],
            [
              0.009263280782550436,
              0.7997020856953893
            ]
          ]
        ]
      },
      "properties": {
        "category": "kite",
        "confidence": 0.5206761360168457,
        "class_id": 37,
        "bbox": [
          20.13837242126465,
          1058.005859375,
          418.8876647949219,
          1106.45947265625
        ]
      }
    }
  ],
  "metadata": {
    "model": "zero_shot_coco",
    "num_detections": 1,
    "image_path": "/tmp/tmp3mvee_ov.png"
  }
}