{
  "type": "FeatureCollection",
  "features": [
    {
      "type": "Feature",
      "geometry": {
        "type": "Polygon",
        "coordinates": [
          [
            [
              0.5109975019944515,
              0.15488940734171272
            ],
            [
              0.5878269507891559,
              0.15488940734171272
            ],
            [
              0.5878269507891559,
              0.3562634526466837
            ],
            [
              0.5109975019944515,
              0.3562634526466837
            ],
            [
              0.5109975019944515,
              0.15488940734171272
            ]
          ]
        ]
      },
      "properties": {
        "category": "person",
        "confidence": 0.9836551547050476,
        "class_id": 0,
        "bbox": [
          1110.9085693359375,
          204.91868591308594,
          1277.935791015625,
          471.3365478515625
        ]
      }
    },
    {
      "type": "Feature",
      "geometry": {
        "type": "Polygon",
        "coordinates": [
          [
            [
              0.5406932672888397,
              0.34281553468826764
            ],
            [
              0.5851623479006153,
              0.34281553468826764
            ],
            [
              0.5851623479006153,
              0.36709158761160715
            ],
            [
              0.5406932672888397,
              0.36709158761160715
            ],
            [
              0.5406932672888397,
              0.34281553468826764
            ]
          ]
        ]
      },
      "properties": {
        "category": "sports ball",
        "confidence": 0.782590389251709,
        "class_id": 36,
        "bbox": [
          1175.4671630859375,
          453.5449523925781,
          1272.1429443359375,
          485.66217041015625
        ]
      }
    }
  ],
  "metadata": {
    "model": "zero_shot_coco",
    "num_detections": 2,
    "image_path": "/tmp/tmph2fnn8r9.png"
  }
}