{
  "type": "FeatureCollection",
  "features": [
    {
      "type": "Feature",
      "geometry": {
        "type": "Polygon",
        "coordinates": [
          [
            [
              0.045769353473225874,
              0.5861805334112812
            ],
            [
              0.2529985572775336,
              0.5861805334112812
            ],
            [
              0.2529985572775336,
              0.848597197125378
            ],
            [
              0.045769353473225874,
              0.848597197125378
            ],
            [
              0.045769353473225874,
              0.5861805334112812
            ]
          ]
        ]
      },
      "properties": {
        "category": "car",
        "confidence": 0.44464439153671265,
        "class_id": 2,
        "bbox": [
          96.98526000976562,
          775.516845703125,
          536.1039428710938,
          1122.694091796875
        ]
      }
    },
    {
      "type": "Feature",
      "geometry": {
        "type": "Polygon",
        "coordinates": [
          [
            [
              0.007804590668977573,
              0.0
            ],
            [
              1.0,
              0.0
            ],
            [
              1.0,
              1.0
            ],
            [
              0.007804590668977573,
              1.0
            ],
            [
              0.007804590668977573,
              0.0
            ]
          ]
        ]
      },
      "properties": {
        "category": "truck",
        "confidence": 0.2829279601573944,
        "class_id": 7,
        "bbox": [
          16.537927627563477,
          0.0,
          2119.0,
          1323.0
        ]
      }
    },
    {
      "type": "Feature",
      "geometry": {
        "type": "Polygon",
        "coordinates": [
          [
            [
              0.7182946702453987,
              0.5750357814566799
            ],
            [
              0.7495505462113615,
              0.5750357814566799
            ],
            [
              0.7495505462113615,
              0.7010966306010251
            ],
            [
              0.7182946702453987,
              0.7010966306010251
            ],
            [
              0.7182946702453987,
              0.5750357814566799
            ]
          ]
        ]
      },
      "properties": {
        "category": "person",
        "confidence": 0.14614397287368774,
        "class_id": 0,
        "bbox": [
          1522.06640625,
          760.7723388671875,
          1588.297607421875,
          927.5508422851562
        ]
      }
    },
    {
      "type": "Feature",
      "geometry": {
        "type": "Polygon",
        "coordinates": [
          [
            [
              0.07991958913402548,
              0.5377318136455971
            ],
            [
              0.1184846050843927,
              0.5377318136455971
            ],
            [
              0.1184846050843927,
              0.6026812010611536
            ],
            [
              0.07991958913402548,
              0.6026812010611536
            ],
            [
              0.07991958913402548,
              0.5377318136455971
            ]
          ]
        ]
      },
      "properties": {
        "category": "person",
        "confidence": 0.13987459242343903,
        "class_id": 0,
        "bbox": [
          169.349609375,
          711.419189453125,
          251.06887817382812,
          797.3472290039062
        ]
      }
    },
    {
      "type": "Feature",
      "geometry": {
        "type": "Polygon",
        "coordinates": [
          [
            [
              0.6252118804197145,
              0.7071210265790344
            ],
            [
              0.7846411812581111,
              0.7071210265790344
            ],
            [
              0.7846411812581111,
              0.9760867671721466
            ],
            [
              0.6252118804197145,
              0.9760867671721466
            ],
            [
              0.6252118804197145,
              0.7071210265790344
            ]
          ]
        ]
      },
      "properties": {
        "category": "parking meter",
        "confidence": 0.11378350853919983,
        "class_id": 13,
        "bbox": [
          1324.823974609375,
          935.5211181640625,
          1662.6546630859375,
          1291.36279296875
        ]
      }
    },
    {
      "type": "Feature",
      "geometry": {
        "type": "Polygon",
        "coordinates": [
          [
            [
              0.0018582400312509217,
              0.5066090048215467
            ],
            [
              0.08060842372719665,
              0.5066090048215467
            ],
            [
              0.08060842372719665,
              0.7258731671922242
            ],
            [
              0.0018582400312509217,
              0.7258731671922242
            ],
            [
              0.0018582400312509217,
              0.5066090048215467
            ]
          ]
        ]
      },
      "properties": {
        "category": "surfboard",
        "confidence": 0.10647080838680267,
        "class_id": 41,
        "bbox": [
          3.937610626220703,
          670.2437133789062,
          170.8092498779297,
          960.3302001953125
        ]
      }
    },
    {
      "type": "Feature",
      "geometry": {
        "type": "Polygon",
        "coordinates": [
          [
            [
              0.006471060986449101,
              0.0
            ],
            [
              1.0,
              0.0
            ],
            [
              1.0,
              1.0
            ],
            [
              0.006471060986449101,
              1.0
            ],
            [
              0.006471060986449101,
              0.0
            ]
          ]
        ]
      },
      "properties": {
        "category": "train",
        "confidence": 0.10448706150054932,
        "class_id": 6,
        "bbox": [
          13.712178230285645,
          0.0,
          2119.0,
          1323.0
        ]
      }
    }
  ],
  "metadata": {
    "model": "zero_shot_coco",
    "num_detections": 7,
    "image_path": "/tmp/tmp3cwtlnp4.png"
  }
}