{
  "type": "FeatureCollection",
  "features": [
    {
      "type": "Feature",
      "geometry": {
        "type": "Polygon",
        "coordinates": [
          [
            [
              0.007571211055833466,
              0.7790438485885293
            ],
            [
              0.15021293795838647,
              0.7790438485885293
            ],
            [
              0.15021293795838647,
              0.8527889570359114
            ],
            [
              0.007571211055833466,
              0.8527889570359114
            ],
            [
              0.007571211055833466,
              0.7790438485885293
            ]
          ]
        ]
      },
      "properties": {
        "category": "car",
        "confidence": 0.5407674312591553,
        "class_id": 2,
        "bbox": [
          9.274733543395996,
          652.8387451171875,
          184.01084899902344,
          714.6371459960938
        ]
      }
    }
  ],
  "metadata": {
    "model": "zero_shot_coco",
    "num_detections": 1,
    "image_path": "/tmp/tmpydawpgwa.png"
  }
}