{
  "type": "FeatureCollection",
  "features": [
    {
      "type": "Feature",
      "geometry": {
        "type": "Polygon",
        "coordinates": [
          [
            [
              0.10176566728391193,
              0.668412927236867
            ],
            [
              0.15661081023349016,
              0.668412927236867
            ],
            [
              0.15661081023349016,
              0.7225575234434052
            ],
            [
              0.10176566728391193,
              0.7225575234434052
            ],
            [
              0.10176566728391193,
              0.668412927236867
            ]
          ]
        ]
      },
      "properties": {
        "category": "car",
        "confidence": 0.4003368318080902,
        "class_id": 2,
        "bbox": [
          215.64144897460938,
          884.310302734375,
          331.8583068847656,
          955.943603515625
        ]
      }
    },
    {
      "type": "Feature",
      "geometry": {
        "type": "Polygon",
        "coordinates": [
          [
            [
              0.1525801136112258,
              0.7264626200957813
            ],
            [
              0.16766945018471272,
              0.7264626200957813
            ],
            [
              0.16766945018471272,
              0.7460985479261149
            ],
            [
              0.1525801136112258,
              0.7460985479261149
            ],
            [
              0.1525801136112258,
              0.7264626200957813
            ]
          ]
        ]
      },
      "properties": {
        "category": "car",
        "confidence": 0.28856825828552246,
        "class_id": 2,
        "bbox": [
          323.3172607421875,
          961.1100463867188,
          355.29156494140625,
          987.08837890625
        ]
      }
    },
    {
      "type": "Feature",
      "geometry": {
        "type": "Polygon",
        "coordinates": [
          [
            [
              0.1463890489737568,
              0.67631183604084
            ],
            [
              0.15517129938576568,
              0.67631183604084
            ],
            [
              0.15517129938576568,
              0.6869749961616591
            ],
            [
              0.1463890489737568,
              0.6869749961616591
            ],
            [
              0.1463890489737568,
              0.67631183604084
            ]
          ]
        ]
      },
      "properties": {
        "category": "car",
        "confidence": 0.26599934697151184,
        "class_id": 2,
        "bbox": [
          310.1983947753906,
          894.7605590820312,
          328.8079833984375,
          908.867919921875
        ]
      }
    }
  ],
  "metadata": {
    "model": "zero_shot_coco",
    "num_detections": 3,
    "image_path": "/tmp/tmp123joz06.png"
  }
}