{
  "type": "FeatureCollection",
  "features": [
    {
      "type": "Feature",
      "geometry": {
        "type": "Polygon",
        "coordinates": [
          [
            [
              0.39357617510102055,
              0.49031908549959696
            ],
            [
              0.422056463654731,
              0.49031908549959696
            ],
            [
              0.422056463654731,
              0.5569725036621094
            ],
            [
              0.39357617510102055,
              0.5569725036621094
            ],
            [
              0.39357617510102055,
              0.49031908549959696
            ]
          ]
        ]
      },
      "properties": {
        "category": "car",
        "confidence": 0.9061092138290405,
        "class_id": 2,
        "bbox": [
          833.9879150390625,
          494.24163818359375,
          894.337646484375,
          561.4282836914062
        ]
      }
    },
    {
      "type": "Feature",
      "geometry": {
        "type": "Polygon",
        "coordinates": [
          [
            [
              0.4002522517623289,
              0.45575375027126735
            ],
            [
              0.5804194494934226,
              0.45575375027126735
            ],
            [
              0.5804194494934226,
              0.7687098790728857
            ],
            [
              0.4002522517623289,
              0.7687098790728857
            ],
            [
              0.4002522517623289,
              0.45575375027126735
            ]
          ]
        ]
      },
      "properties": {
        "category": "car",
        "confidence": 0.7072214484214783,
        "class_id": 2,
        "bbox": [
          848.134521484375,
          459.3997802734375,
          1229.9088134765625,
          774.8595581054688
        ]
      }
    }
  ],
  "metadata": {
    "model": "zero_shot_coco",
    "num_detections": 2,
    "image_path": "/tmp/tmpfcrb6x2q.png"
  }
}