{
  "type": "FeatureCollection",
  "features": [
    {
      "type": "Feature",
      "geometry": {
        "type": "Polygon",
        "coordinates": [
          [
            [
              0.7482557598292237,
              0.62110791310882
            ],
            [
              0.9867066063370104,
              0.62110791310882
            ],
            [
              0.9867066063370104,
              0.6799928141829649
            ],
            [
              0.7482557598292237,
              0.6799928141829649
            ],
            [
              0.7482557598292237,
              0.62110791310882
            ]
          ]
        ]
      },
      "properties": {
        "category": "kite",
        "confidence": 0.5775049328804016,
        "class_id": 37,
        "bbox": [
          1585.553955078125,
          821.7257690429688,
          2090.831298828125,
          899.6304931640625
        ]
      }
    }
  ],
  "metadata": {
    "model": "zero_shot_coco",
    "num_detections": 1,
    "image_path": "/tmp/tmp2_p1zxfd.png"
  }
}