{
  "type": "FeatureCollection",
  "features": [
    {
      "type": "Feature",
      "geometry": {
        "type": "Polygon",
        "coordinates": [
          [
            [
              0.5258012506648172,
              0.44519681779165116
            ],
            [
              0.5975748323582681,
              0.44519681779165116
            ],
            [
              0.5975748323582681,
              0.7277469332256015
            ],
            [
              0.5258012506648172,
              0.7277469332256015
            ],
            [
              0.5258012506648172,
              0.44519681779165116
            ]
          ]
        ]
      },
      "properties": {
        "category": "cell phone",
        "confidence": 0.9735637903213501,
        "class_id": 77,
        "bbox": [
          1143.0919189453125,
          448.7583923339844,
          1299.127685546875,
          733.5689086914062
        ]
      }
    },
    {
      "type": "Feature",
      "geometry": {
        "type": "Polygon",
        "coordinates": [
          [
            [
              0.44111643127048356,
              0.41502574133494546
            ],
            [
              0.5100510920969411,
              0.41502574133494546
            ],
            [
              0.5100510920969411,
              0.7029542468843006
            ],
            [
              0.44111643127048356,
              0.7029542468843006
            ],
            [
              0.44111643127048356,
              0.41502574133494546
            ]
          ]
        ]
      },
      "properties": {
        "category": "cell phone",
        "confidence": 0.97052401304245,
        "class_id": 77,
        "bbox": [
          958.9871215820312,
          418.345947265625,
          1108.85107421875,
          708.577880859375
        ]
      }
    },
    {
      "type": "Feature",
      "geometry": {
        "type": "Polygon",
        "coordinates": [
          [
            [
              0.8486484783772712,
              0.40005487108987475
            ],
            [
              0.9432411228941467,
              0.40005487108987475
            ],
            [
              0.9432411228941467,
              0.6716886247907367
            ],
            [
              0.8486484783772712,
              0.6716886247907367
            ],
            [
              0.8486484783772712,
              0.40005487108987475
            ]
          ]
        ]
      },
      "properties": {
        "category": "chair",
        "confidence": 0.7850750684738159,
        "class_id": 62,
        "bbox": [
          1844.9617919921875,
          403.25531005859375,
          2050.606201171875,
          677.0621337890625
        ]
      }
    },
    {
      "type": "Feature",
      "geometry": {
        "type": "Polygon",
        "coordinates": [
          [
            [
              0.2793930881924879,
              0.04306976757352314
            ],
            [
              0.3348374915101052,
              0.04306976757352314
            ],
            [
              0.3348374915101052,
              0.2221678022354368
            ],
            [
              0.2793930881924879,
              0.2221678022354368
            ],
            [
              0.2793930881924879,
              0.04306976757352314
            ]
          ]
        ]
      },
      "properties": {
        "category": "car",
        "confidence": 0.59893798828125,
        "class_id": 3,
        "bbox": [
          607.4005737304688,
          43.41432571411133,
          727.9367065429688,
          223.9451446533203
        ]
      }
    },
    {
      "type": "Feature",
      "geometry": {
        "type": "Polygon",
        "coordinates": [
          [
            [
              0.5956559027677956,
              0.4182652367485894
            ],
            [
              0.6869081779697562,
              0.4182652367485894
            ],
            [
              0.6869081779697562,
              0.7463455805702816
            ],
            [
              0.5956559027677956,
              0.7463455805702816
            ],
            [
              0.5956559027677956,
              0.4182652367485894
            ]
          ]
        ]
      },
      "properties": {
        "category": "cell phone",
        "confidence": 0.5207927823066711,
        "class_id": 77,
        "bbox": [
          1294.9559326171875,
          421.6113586425781,
          1493.33837890625,
          752.3163452148438
        ]
      }
    },
    {
      "type": "Feature",
      "geometry": {
        "type": "Polygon",
        "coordinates": [
          [
            [
              0.947158378313305,
              0.35639608474004836
            ],
            [
              0.9998459241317847,
              0.35639608474004836
            ],
            [
              0.9998459241317847,
              0.6999105423215836
            ],
            [
              0.947158378313305,
              0.6999105423215836
            ],
            [
              0.947158378313305,
              0.35639608474004836
            ]
          ]
        ]
      },
      "properties": {
        "category": "chair",
        "confidence": 0.5151296854019165,
        "class_id": 62,
        "bbox": [
          2059.122314453125,
          359.24725341796875,
          2173.6650390625,
          705.5098266601562
        ]
      }
    },
    {
      "type": "Feature",
      "geometry": {
        "type": "Polygon",
        "coordinates": [
          [
            [
              0.6594432560588201,
              0.07273951030912854
            ],
            [
              0.866084655930169,
              0.07273951030912854
            ],
            [
              0.866084655930169,
              0.7270900181361607
            ],
            [
              0.6594432560588201,
              0.7270900181361607
            ],
            [
              0.6594432560588201,
              0.07273951030912854
            ]
          ]
        ]
      },
      "properties": {
        "category": "dog",
        "confidence": 0.33439505100250244,
        "class_id": 18,
        "bbox": [
          1433.629638671875,
          73.32142639160156,
          1882.8680419921875,
          732.90673828125
        ]
      }
    },
    {
      "type": "Feature",
      "geometry": {
        "type": "Polygon",
        "coordinates": [
          [
            [
              0.9475737767364305,
              0.3600690024239676
            ],
            [
              0.9987753663681578,
              0.3600690024239676
            ],
            [
              0.9987753663681578,
              0.6969065590510293
            ],
            [
              0.9475737767364305,
              0.6969065590510293
            ],
            [
              0.9475737767364305,
              0.3600690024239676
            ]
          ]
        ]
      },
      "properties": {
        "category": "car",
        "confidence": 0.3084947168827057,
        "class_id": 3,
        "bbox": [
          2060.025390625,
          362.9495544433594,
          2171.337646484375,
          702.4818115234375
        ]
      }
    },
    {
      "type": "Feature",
      "geometry": {
        "type": "Polygon",
        "coordinates": [
          [
            [
              0.26007321523545307,
              0.02937925618792337
            ],
            [
              0.3430055339290335,
              0.02937925618792337
            ],
            [
              0.3430055339290335,
              0.3323991563585069
            ],
            [
              0.26007321523545307,
              0.3323991563585069
            ],
            [
              0.26007321523545307,
              0.02937925618792337
            ]
          ]
        ]
      },
      "properties": {
        "category": "car",
        "confidence": 0.28652524948120117,
        "class_id": 3,
        "bbox": [
          565.399169921875,
          29.614290237426758,
          745.6940307617188,
          335.058349609375
        ]
      }
    },
    {
      "type": "Feature",
      "geometry": {
        "type": "Polygon",
        "coordinates": [
          [
            [
              0.5959800572820837,
              0.42306624518500435
            ],
            [
              0.6881421325178243,
              0.42306624518500435
            ],
            [
              0.6881421325178243,
              0.7554360647050161
            ],
            [
              0.5959800572820837,
              0.7554360647050161
            ],
            [
              0.5959800572820837,
              0.42306624518500435
            ]
          ]
        ]
      },
      "properties": {
        "category": "chair",
        "confidence": 0.28611499071121216,
        "class_id": 62,
        "bbox": [
          1295.66064453125,
          426.4507751464844,
          1496.02099609375,
          761.4795532226562
        ]
      }
    },
    {
      "type": "Feature",
      "geometry": {
        "type": "Polygon",
        "coordinates": [
          [
            [
              0.5911802346265524,
              0.41187795003255206
            ],
            [
              0.6876361078369365,
              0.41187795003255206
            ],
            [
              0.6876361078369365,
              0.7387879992288257
            ],
            [
              0.5911802346265524,
              0.7387879992288257
            ],
            [
              0.5911802346265524,
              0.41187795003255206
            ]
          ]
        ]
      },
      "properties": {
        "category": "suitcase",
        "confidence": 0.2798088490962982,
        "class_id": 33,
        "bbox": [
          1285.225830078125,
          415.1729736328125,
          1494.9208984375,
          744.6983032226562
        ]
      }
    },
    {
      "type": "Feature",
      "geometry": {
        "type": "Polygon",
        "coordinates": [
          [
            [
              0.07876770805632619,
              0.024157244061666822
            ],
            [
              0.16944426226857176,
              0.024157244061666822
            ],
            [
              0.16944426226857176,
              0.33578348916674416
            ],
            [
              0.07876770805632619,
              0.33578348916674416
            ],
            [
              0.07876770805632619,
              0.024157244061666822
            ]
          ]
        ]
      },
      "properties": {
        "category": "chair",
        "confidence": 0.2540309727191925,
        "class_id": 62,
        "bbox": [
          171.24099731445312,
          24.350502014160156,
          368.371826171875,
          338.4697570800781
        ]
      }
    }
  ],
  "metadata": {
    "model": "zero_shot_coco",
    "num_detections": 12,
    "image_path": "/tmp/tmpnbaybfmz.png"
  }
}