{
  "type": "FeatureCollection",
  "features": [
    {
      "type": "Feature",
      "geometry": {
        "type": "Polygon",
        "coordinates": [
          [
            [
              0.43173683633609694,
              0.9058930390205474
            ],
            [
              0.46327302893813777,
              0.9058930390205474
            ],
            [
              0.46327302893813777,
              0.9667112218451671
            ],
            [
              0.43173683633609694,
              0.9667112218451671
            ],
            [
              0.43173683633609694,
              0.9058930390205474
            ]
          ]
        ]
      },
      "properties": {
        "category": "car",
        "confidence": 0.7144213914871216,
        "class_id": 2,
        "bbox": [
          528.8776245117188,
          759.1383666992188,
          567.5094604492188,
          810.10400390625
        ]
      }
    }
  ],
  "metadata": {
    "model": "zero_shot_coco",
    "num_detections": 1,
    "image_path": "/tmp/tmpx176uxfj.png"
  }
}