{
  "type": "FeatureCollection",
  "features": [
    {
      "type": "Feature",
      "geometry": {
        "type": "Polygon",
        "coordinates": [
          [
            [
              0.15797396241357378,
              0.12862111940045115
            ],
            [
              0.3102840644674994,
              0.12862111940045115
            ],
            [
              0.3102840644674994,
              0.6985522073412699
            ],
            [
              0.15797396241357378,
              0.6985522073412699
            ],
            [
              0.15797396241357378,
              0.12862111940045115
            ]
          ]
        ]
      },
      "properties": {
        "category": "person",
        "confidence": 0.1638382226228714,
        "class_id": 0,
        "bbox": [
          343.4353942871094,
          170.16574096679688,
          674.5575561523438,
          924.1845703125
        ]
      }
    },
    {
      "type": "Feature",
      "geometry": {
        "type": "Polygon",
        "coordinates": [
          [
            [
              0.09791619687751553,
              0.11726523562984222
            ],
            [
              0.3355525349298528,
              0.11726523562984222
            ],
            [
              0.3355525349298528,
              0.7377323026649896
            ],
            [
              0.09791619687751553,
              0.7377323026649896
            ],
            [
              0.09791619687751553,
              0.11726523562984222
            ]
          ]
        ]
      },
      "properties": {
        "category": "bench",
        "confidence": 0.08966384083032608,
        "class_id": 14,
        "bbox": [
          212.86981201171875,
          155.14190673828125,
          729.4912109375,
          976.0198364257812
        ]
      }
    },
    {
      "type": "Feature",
      "geometry": {
        "type": "Polygon",
        "coordinates": [
          [
            [
              0.15249524296371894,
              0.12866536181529903
            ],
            [
              0.3260363567390898,
              0.12866536181529903
            ],
            [
              0.3260363567390898,
              0.6881306966145834
            ],
            [
              0.15249524296371894,
              0.6881306966145834
            ],
            [
              0.15249524296371894,
              0.12866536181529903
            ]
          ]
        ]
      },
      "properties": {
        "category": "dog",
        "confidence": 0.07165432721376419,
        "class_id": 17,
        "bbox": [
          331.524658203125,
          170.22427368164062,
          708.8030395507812,
          910.3969116210938
        ]
      }
    },
    {
      "type": "Feature",
      "geometry": {
        "type": "Polygon",
        "coordinates": [
          [
            [
              0.13088781502450839,
              0.09837388595846325
            ],
            [
              0.3369323955069141,
              0.09837388595846325
            ],
            [
              0.3369323955069141,
              0.7254600380733891
            ],
            [
              0.13088781502450839,
              0.7254600380733891
            ],
            [
              0.13088781502450839,
              0.09837388595846325
            ]
          ]
        ]
      },
      "properties": {
        "category": "frisbee",
        "confidence": 0.05815083160996437,
        "class_id": 33,
        "bbox": [
          284.55010986328125,
          130.14865112304688,
          732.4910278320312,
          959.7836303710938
        ]
      }
    }
  ],
  "metadata": {
    "model": "zero_shot_coco",
    "num_detections": 4,
    "image_path": "/tmp/tmp11vuy3q5.png"
  }
}