{
  "type": "FeatureCollection",
  "features": [
    {
      "type": "Feature",
      "geometry": {
        "type": "Polygon",
        "coordinates": [
          [
            [
              0.7659908652924434,
              0.015546660574655684
            ],
            [
              0.8670590928614618,
              0.015546660574655684
            ],
            [
              0.8670590928614618,
              0.30464145115443636
            ],
            [
              0.7659908652924434,
              0.30464145115443636
            ],
            [
              0.7659908652924434,
              0.015546660574655684
            ]
          ]
        ]
      },
      "properties": {
        "category": "boat",
        "confidence": 0.7402293086051941,
        "class_id": 8,
        "bbox": [
          1623.1346435546875,
          15.67103385925293,
          1837.2982177734375,
          307.0785827636719
        ]
      }
    },
    {
      "type": "Feature",
      "geometry": {
        "type": "Polygon",
        "coordinates": [
          [
            [
              0.3173832445563208,
              0.6627470955016121
            ],
            [
              0.36596985007300026,
              0.6627470955016121
            ],
            [
              0.36596985007300026,
              0.7529803079272074
            ],
            [
              0.3173832445563208,
              0.7529803079272074
            ],
            [
              0.3173832445563208,
              0.6627470955016121
            ]
          ]
        ]
      },
      "properties": {
        "category": "car",
        "confidence": 0.5656574368476868,
        "class_id": 2,
        "bbox": [
          672.5350952148438,
          668.049072265625,
          775.4901123046875,
          759.004150390625
        ]
      }
    },
    {
      "type": "Feature",
      "geometry": {
        "type": "Polygon",
        "coordinates": [
          [
            [
              0.7064738973461834,
              0.2152511203099811
            ],
            [
              0.748645532238084,
              0.2152511203099811
            ],
            [
              0.748645532238084,
              0.2921540699307881
            ],
            [
              0.7064738973461834,
              0.2921540699307881
            ],
            [
              0.7064738973461834,
              0.2152511203099811
            ]
          ]
        ]
      },
      "properties": {
        "category": "sheep",
        "confidence": 0.47727736830711365,
        "class_id": 19,
        "bbox": [
          1497.0181884765625,
          216.97312927246094,
          1586.3798828125,
          294.4913024902344
        ]
      }
    },
    {
      "type": "Feature",
      "geometry": {
        "type": "Polygon",
        "coordinates": [
          [
            [
              0.36949012975976286,
              0.24059071616520958
            ],
            [
              0.518459692716936,
              0.24059071616520958
            ],
            [
              0.518459692716936,
              0.6017000107538133
            ],
            [
              0.36949012975976286,
              0.6017000107538133
            ],
            [
              0.36949012975976286,
              0.24059071616520958
            ]
          ]
        ]
      },
      "properties": {
        "category": "surfboard",
        "confidence": 0.46351584792137146,
        "class_id": 41,
        "bbox": [
          782.9495849609375,
          242.51544189453125,
          1098.6160888671875,
          606.5136108398438
        ]
      }
    },
    {
      "type": "Feature",
      "geometry": {
        "type": "Polygon",
        "coordinates": [
          [
            [
              0.26162194058038873,
              0.034802459535144624
            ],
            [
              0.5163063240141281,
              0.034802459535144624
            ],
            [
              0.5163063240141281,
              0.8992185441274492
            ],
            [
              0.26162194058038873,
              0.8992185441274492
            ],
            [
              0.26162194058038873,
              0.034802459535144624
            ]
          ]
        ]
      },
      "properties": {
        "category": "fire hydrant",
        "confidence": 0.3809983432292938,
        "class_id": 10,
        "bbox": [
          554.3768920898438,
          35.08087921142578,
          1094.0531005859375,
          906.4122924804688
        ]
      }
    },
    {
      "type": "Feature",
      "geometry": {
        "type": "Polygon",
        "coordinates": [
          [
            [
              0.7109427422833589,
              0.216078243558369
            ],
            [
              0.7381451810627064,
              0.216078243558369
            ],
            [
              0.7381451810627064,
              0.28635406494140625
            ],
            [
              0.7109427422833589,
              0.28635406494140625
            ],
            [
              0.7109427422833589,
              0.216078243558369
            ]
          ]
        ]
      },
      "properties": {
        "category": "person",
        "confidence": 0.13957923650741577,
        "class_id": 0,
        "bbox": [
          1506.4876708984375,
          217.80686950683594,
          1564.129638671875,
          288.6448974609375
        ]
      }
    },
    {
      "type": "Feature",
      "geometry": {
        "type": "Polygon",
        "coordinates": [
          [
            [
              0.35665969884637505,
              0.1597221162584093
            ],
            [
              0.5151102769031678,
              0.1597221162584093
            ],
            [
              0.5151102769031678,
              0.610367668999566
            ],
            [
              0.35665969884637505,
              0.610367668999566
            ],
            [
              0.35665969884637505,
              0.1597221162584093
            ]
          ]
        ]
      },
      "properties": {
        "category": "keyboard",
        "confidence": 0.13499249517917633,
        "class_id": 75,
        "bbox": [
          755.7619018554688,
          160.99989318847656,
          1091.5186767578125,
          615.2506103515625
        ]
      }
    },
    {
      "type": "Feature",
      "geometry": {
        "type": "Polygon",
        "coordinates": [
          [
            [
              0.2535956591128628,
              0.2009822754632859
            ],
            [
              0.5233927389651664,
              0.2009822754632859
            ],
            [
              0.5233927389651664,
              0.9255606030660962
            ],
            [
              0.2535956591128628,
              0.9255606030660962
            ],
            [
              0.2535956591128628,
              0.2009822754632859
            ]
          ]
        ]
      },
      "properties": {
        "category": "keyboard",
        "confidence": 0.10397759079933167,
        "class_id": 75,
        "bbox": [
          537.3692016601562,
          202.5901336669922,
          1109.0692138671875,
          932.965087890625
        ]
      }
    }
  ],
  "metadata": {
    "model": "zero_shot_coco",
    "num_detections": 8,
    "image_path": "/tmp/tmpwfslgwet.png"
  }
}