{
  "type": "FeatureCollection",
  "features": [
    {
      "type": "Feature",
      "geometry": {
        "type": "Polygon",
        "coordinates": [
          [
            [
              0.009488513077019858,
              0.6287245285483986
            ],
            [
              0.9757949375442425,
              0.6287245285483986
            ],
            [
              0.9757949375442425,
              0.9792063418249244
            ],
            [
              0.009488513077019858,
              0.9792063418249244
            ],
            [
              0.009488513077019858,
              0.6287245285483986
            ]
          ]
        ]
      },
      "properties": {
        "category": "boat",
        "confidence": 0.17878444492816925,
        "class_id": 8,
        "bbox": [
          20.106159210205078,
          831.8025512695312,
          2067.70947265625,
          1295.489990234375
        ]
      }
    }
  ],
  "metadata": {
    "model": "zero_shot_coco",
    "num_detections": 1,
    "image_path": "/tmp/tmp9crcytnu.png"
  }
}