{
  "type": "FeatureCollection",
  "features": [
    {
      "type": "Feature",
      "geometry": {
        "type": "Polygon",
        "coordinates": [
          [
            [
              0.538677927980537,
              0.6865754304108797
            ],
            [
              0.5911336300454232,
              0.6865754304108797
            ],
            [
              0.5911336300454232,
              0.7769379561720522
            ],
            [
              0.538677927980537,
              0.7769379561720522
            ],
            [
              0.538677927980537,
              0.6865754304108797
            ]
          ]
        ]
      },
      "properties": {
        "category": "remote",
        "confidence": 0.7553000450134277,
        "class_id": 74,
        "bbox": [
          1171.0858154296875,
          908.3392944335938,
          1285.12451171875,
          1027.888916015625
        ]
      }
    }
  ],
  "metadata": {
    "model": "zero_shot_coco",
    "num_detections": 1,
    "image_path": "/tmp/tmpo_o1ooqu.png"
  }
}