{
  "type": "FeatureCollection",
  "features": [
    {
      "type": "Feature",
      "geometry": {
        "type": "Polygon",
        "coordinates": [
          [
            [
              0.33212111823144264,
              0.21186564496675406
            ],
            [
              0.5547857065209579,
              0.21186564496675406
            ],
            [
              0.5547857065209579,
              0.6220904730164635
            ],
            [
              0.33212111823144264,
              0.6220904730164635
            ],
            [
              0.33212111823144264,
              0.21186564496675406
            ]
          ]
        ]
      },
      "properties": {
        "category": "bench",
        "confidence": 0.6408044695854187,
        "class_id": 14,
        "bbox": [
          722.0313110351562,
          280.2982482910156,
          1206.1041259765625,
          823.0256958007812
        ]
      }
    },
    {
      "type": "Feature",
      "geometry": {
        "type": "Polygon",
        "coordinates": [
          [
            [
              0.3348392040880865,
              0.18466334151933342
            ],
            [
              0.5700087279711936,
              0.18466334151933342
            ],
            [
              0.5700087279711936,
              0.6470071182769983
            ],
            [
              0.3348392040880865,
              0.6470071182769983
            ],
            [
              0.3348392040880865,
              0.18466334151933342
            ]
          ]
        ]
      },
      "properties": {
        "category": "person",
        "confidence": 0.391280859708786,
        "class_id": 0,
        "bbox": [
          727.9404296875,
          244.30960083007812,
          1239.198974609375,
          855.9904174804688
        ]
      }
    },
    {
      "type": "Feature",
      "geometry": {
        "type": "Polygon",
        "coordinates": [
          [
            [
              0.4257592953117813,
              0.31725414503909205
            ],
            [
              0.47693398904668816,
              0.31725414503909205
            ],
            [
              0.47693398904668816,
              0.3881416580303997
            ],
            [
              0.4257592953117813,
              0.3881416580303997
            ],
            [
              0.4257592953117813,
              0.31725414503909205
            ]
          ]
        ]
      },
      "properties": {
        "category": "bench",
        "confidence": 0.25171926617622375,
        "class_id": 14,
        "bbox": [
          925.6007080078125,
          419.72723388671875,
          1036.8544921875,
          513.5114135742188
        ]
      }
    }
  ],
  "metadata": {
    "model": "zero_shot_coco",
    "num_detections": 3,
    "image_path": "/tmp/tmpjln9ilm_.png"
  }
}