{
  "type": "FeatureCollection",
  "features": [
    {
      "type": "Feature",
      "geometry": {
        "type": "Polygon",
        "coordinates": [
          [
            [
              0.543644347976081,
              0.3088492626325704
            ],
            [
              0.7089068317150127,
              0.3088492626325704
            ],
            [
              0.7089068317150127,
              0.6530011581455499
            ],
            [
              0.543644347976081,
              0.6530011581455499
            ],
            [
              0.543644347976081,
              0.3088492626325704
            ]
          ]
        ]
      },
      "properties": {
        "category": "person",
        "confidence": 0.6790514588356018,
        "class_id": 0,
        "bbox": [
          1181.8828125,
          408.6075744628906,
          1541.1634521484375,
          863.9205322265625
        ]
      }
    },
    {
      "type": "Feature",
      "geometry": {
        "type": "Polygon",
        "coordinates": [
          [
            [
              0.552803158869739,
              0.26683130934665533
            ],
            [
              0.6365832598141387,
              0.26683130934665533
            ],
            [
              0.6365832598141387,
              0.4948759533110119
            ],
            [
              0.552803158869739,
              0.4948759533110119
            ],
            [
              0.552803158869739,
              0.26683130934665533
            ]
          ]
        ]
      },
      "properties": {
        "category": "person",
        "confidence": 0.3837161064147949,
        "class_id": 0,
        "bbox": [
          1201.7940673828125,
          353.017822265625,
          1383.9320068359375,
          654.7208862304688
        ]
      }
    }
  ],
  "metadata": {
    "model": "zero_shot_coco",
    "num_detections": 2,
    "image_path": "/tmp/tmpeme_yus9.png"
  }
}