{
  "type": "FeatureCollection",
  "features": [
    {
      "type": "Feature",
      "geometry": {
        "type": "Polygon",
        "coordinates": [
          [
            [
              0.2888412966899293,
              0.12922137917124316
            ],
            [
              0.5487971301460441,
              0.12922137917124316
            ],
            [
              0.5487971301460441,
              0.7482143872088766
            ],
            [
              0.2888412966899293,
              0.7482143872088766
            ],
            [
              0.2888412966899293,
              0.12922137917124316
            ]
          ]
        ]
      },
      "properties": {
        "category": "person",
        "confidence": 0.919035017490387,
        "class_id": 0,
        "bbox": [
          627.9409790039062,
          170.9598846435547,
          1193.0849609375,
          989.8876342773438
        ]
      }
    },
    {
      "type": "Feature",
      "geometry": {
        "type": "Polygon",
        "coordinates": [
          [
            [
              0.3348915921292836,
              0.7044116746090797
            ],
            [
              0.42370170305492466,
              0.7044116746090797
            ],
            [
              0.42370170305492466,
              0.7271285168798423
            ],
            [
              0.3348915921292836,
              0.7271285168798423
            ],
            [
              0.3348915921292836,
              0.7044116746090797
            ]
          ]
        ]
      },
      "properties": {
        "category": "sports ball",
        "confidence": 0.7229909896850586,
        "class_id": 36,
        "bbox": [
          728.0543212890625,
          931.9366455078125,
          921.1275024414062,
          961.9910278320312
        ]
      }
    },
    {
      "type": "Feature",
      "geometry": {
        "type": "Polygon",
        "coordinates": [
          [
            [
              0.3213844895911195,
              0.689264345060941
            ],
            [
              0.42896743114650415,
              0.689264345060941
            ],
            [
              0.42896743114650415,
              0.729242372404691
            ],
            [
              0.3213844895911195,
              0.729242372404691
            ],
            [
              0.3213844895911195,
              0.689264345060941
            ]
          ]
        ]
      },
      "properties": {
        "category": "sports ball",
        "confidence": 0.48874565958976746,
        "class_id": 36,
        "bbox": [
          698.6898803710938,
          911.896728515625,
          932.5751953125,
          964.7876586914062
        ]
      }
    },
    {
      "type": "Feature",
      "geometry": {
        "type": "Polygon",
        "coordinates": [
          [
            [
              0.39363296073625803,
              0.13955405906394677
            ],
            [
              0.5537937588941755,
              0.13955405906394677
            ],
            [
              0.5537937588941755,
              0.5752431072255291
            ],
            [
              0.39363296073625803,
              0.5752431072255291
            ],
            [
              0.39363296073625803,
              0.13955405906394677
            ]
          ]
        ]
      },
      "properties": {
        "category": "person",
        "confidence": 0.19116553664207458,
        "class_id": 0,
        "bbox": [
          855.758056640625,
          184.63002014160156,
          1203.9476318359375,
          761.046630859375
        ]
      }
    },
    {
      "type": "Feature",
      "geometry": {
        "type": "Polygon",
        "coordinates": [
          [
            [
              0.7826366828139374,
              0.7003442788790863
            ],
            [
              0.9099115478740225,
              0.7003442788790863
            ],
            [
              0.9099115478740225,
              0.7908001796638794
            ],
            [
              0.7826366828139374,
              0.7908001796638794
            ],
            [
              0.7826366828139374,
              0.7003442788790863
            ]
          ]
        ]
      },
      "properties": {
        "category": "parking meter",
        "confidence": 0.10659810900688171,
        "class_id": 13,
        "bbox": [
          1701.4521484375,
          926.5554809570312,
          1978.147705078125,
          1046.2286376953125
        ]
      }
    }
  ],
  "metadata": {
    "model": "zero_shot_coco",
    "num_detections": 5,
    "image_path": "/tmp/tmprqu5z_ds.png"
  }
}