{
  "type": "FeatureCollection",
  "features": [
    {
      "type": "Feature",
      "geometry": {
        "type": "Polygon",
        "coordinates": [
          [
            [
              0.6645954270698148,
              0.5282695190706491
            ],
            [
              0.6856259125029495,
              0.5282695190706491
            ],
            [
              0.6856259125029495,
              0.5668145350588152
            ],
            [
              0.6645954270698148,
              0.5668145350588152
            ],
            [
              0.6645954270698148,
              0.5282695190706491
            ]
          ]
        ]
      },
      "properties": {
        "category": "car",
        "confidence": 0.5470631718635559,
        "class_id": 2,
        "bbox": [
          1408.2777099609375,
          698.9005737304688,
          1452.84130859375,
          749.8956298828125
        ]
      }
    },
    {
      "type": "Feature",
      "geometry": {
        "type": "Polygon",
        "coordinates": [
          [
            [
              0.6775495701097216,
              0.21222604303223025
            ],
            [
              0.6901794980865089,
              0.21222604303223025
            ],
            [
              0.6901794980865089,
              0.2500206449224655
            ],
            [
              0.6775495701097216,
              0.2500206449224655
            ],
            [
              0.6775495701097216,
              0.21222604303223025
            ]
          ]
        ]
      },
      "properties": {
        "category": "person",
        "confidence": 0.5154463648796082,
        "class_id": 0,
        "bbox": [
          1435.7275390625,
          280.7750549316406,
          1462.4903564453125,
          330.7773132324219
        ]
      }
    }
  ],
  "metadata": {
    "model": "zero_shot_coco",
    "num_detections": 2,
    "image_path": "/tmp/tmpwe75xs8z.png"
  }
}