{
  "type": "FeatureCollection",
  "features": [
    {
      "type": "Feature",
      "geometry": {
        "type": "Polygon",
        "coordinates": [
          [
            [
              0.07104822771200481,
              0.4680883014012897
            ],
            [
              0.2612984384433216,
              0.4680883014012897
            ],
            [
              0.2612984384433216,
              0.6075320427650227
            ],
            [
              0.07104822771200481,
              0.6075320427650227
            ],
            [
              0.07104822771200481,
              0.4680883014012897
            ]
          ]
        ]
      },
      "properties": {
        "category": "parking meter",
        "confidence": 0.2088760882616043,
        "class_id": 13,
        "bbox": [
          154.45884704589844,
          619.2808227539062,
          568.0628051757812,
          803.764892578125
        ]
      }
    },
    {
      "type": "Feature",
      "geometry": {
        "type": "Polygon",
        "coordinates": [
          [
            [
              0.6248281245507992,
              0.18128659341340703
            ],
            [
              0.8251054723436062,
              0.18128659341340703
            ],
            [
              0.8251054723436062,
              0.5618681961716978
            ],
            [
              0.6248281245507992,
              0.5618681961716978
            ],
            [
              0.6248281245507992,
              0.18128659341340703
            ]
          ]
        ]
      },
      "properties": {
        "category": "frisbee",
        "confidence": 0.19790910184383392,
        "class_id": 33,
        "bbox": [
          1358.3763427734375,
          239.8421630859375,
          1793.779296875,
          743.3516235351562
        ]
      }
    },
    {
      "type": "Feature",
      "geometry": {
        "type": "Polygon",
        "coordinates": [
          [
            [
              0.6286024779711936,
              0.17299409319934572
            ],
            [
              0.7809166930197792,
              0.17299409319934572
            ],
            [
              0.7809166930197792,
              0.4999008121043556
            ],
            [
              0.6286024779711936,
              0.4999008121043556
            ],
            [
              0.6286024779711936,
              0.17299409319934572
            ]
          ]
        ]
      },
      "properties": {
        "category": "person",
        "confidence": 0.19306685030460358,
        "class_id": 0,
        "bbox": [
          1366.581787109375,
          228.87118530273438,
          1697.712890625,
          661.3687744140625
        ]
      }
    },
    {
      "type": "Feature",
      "geometry": {
        "type": "Polygon",
        "coordinates": [
          [
            [
              0.6500566442186062,
              0.16482974143976167
            ],
            [
              0.7134348317473551,
              0.16482974143976167
            ],
            [
              0.7134348317473551,
              0.38974079757771163
            ],
            [
              0.6500566442186062,
              0.38974079757771163
            ],
            [
              0.6500566442186062,
              0.16482974143976167
            ]
          ]
        ]
      },
      "properties": {
        "category": "person",
        "confidence": 0.16827277839183807,
        "class_id": 0,
        "bbox": [
          1413.22314453125,
          218.0697479248047,
          1551.00732421875,
          515.6270751953125
        ]
      }
    },
    {
      "type": "Feature",
      "geometry": {
        "type": "Polygon",
        "coordinates": [
          [
            [
              0.6320123049570204,
              0.19247682186481363
            ],
            [
              0.8266614477022481,
              0.19247682186481363
            ],
            [
              0.8266614477022481,
              0.5759919527706916
            ],
            [
              0.6320123049570204,
              0.5759919527706916
            ],
            [
              0.6320123049570204,
              0.19247682186481363
            ]
          ]
        ]
      },
      "properties": {
        "category": "carrot",
        "confidence": 0.161670982837677,
        "class_id": 56,
        "bbox": [
          1373.9947509765625,
          254.64683532714844,
          1797.1619873046875,
          762.037353515625
        ]
      }
    },
    {
      "type": "Feature",
      "geometry": {
        "type": "Polygon",
        "coordinates": [
          [
            [
              0.6272817715221078,
              0.17580842287001605
            ],
            [
              0.8034586551108268,
              0.17580842287001605
            ],
            [
              0.8034586551108268,
              0.5434597531503921
            ],
            [
              0.6272817715221078,
              0.5434597531503921
            ],
            [
              0.6272817715221078,
              0.17580842287001605
            ]
          ]
        ]
      },
      "properties": {
        "category": "dog",
        "confidence": 0.12524251639842987,
        "class_id": 17,
        "bbox": [
          1363.7105712890625,
          232.59454345703125,
          1746.7191162109375,
          718.9972534179688
        ]
      }
    },
    {
      "type": "Feature",
      "geometry": {
        "type": "Polygon",
        "coordinates": [
          [
            [
              0.6322918762936982,
              0.1759605955554965
            ],
            [
              0.8190782647014432,
              0.1759605955554965
            ],
            [
              0.8190782647014432,
              0.569649555785856
            ],
            [
              0.6322918762936982,
              0.569649555785856
            ],
            [
              0.6322918762936982,
              0.1759605955554965
            ]
          ]
        ]
      },
      "properties": {
        "category": "handbag",
        "confidence": 0.10173863172531128,
        "class_id": 30,
        "bbox": [
          1374.6025390625,
          232.79586791992188,
          1780.6761474609375,
          753.6463623046875
        ]
      }
    }
  ],
  "metadata": {
    "model": "zero_shot_coco",
    "num_detections": 7,
    "image_path": "/tmp/tmpe215cyd9.png"
  }
}