{
  "type": "FeatureCollection",
  "features": [
    {
      "type": "Feature",
      "geometry": {
        "type": "Polygon",
        "coordinates": [
          [
            [
              0.4826090417981654,
              0.11708276450228529
            ],
            [
              0.4906203453132374,
              0.11708276450228529
            ],
            [
              0.4906203453132374,
              0.13108353964415628
            ],
            [
              0.4826090417981654,
              0.13108353964415628
            ],
            [
              0.4826090417981654,
              0.11708276450228529
            ]
          ]
        ]
      },
      "properties": {
        "category": "suitcase",
        "confidence": 0.30927926301956177,
        "class_id": 32,
        "bbox": [
          1022.6485595703125,
          154.90049743652344,
          1039.62451171875,
          173.42352294921875
        ]
      }
    },
    {
      "type": "Feature",
      "geometry": {
        "type": "Polygon",
        "coordinates": [
          [
            [
              0.6122936268581878,
              0.40103659193712204
            ],
            [
              0.6181443031242626,
              0.40103659193712204
            ],
            [
              0.6181443031242626,
              0.4082319586905943
            ],
            [
              0.6122936268581878,
              0.4082319586905943
            ],
            [
              0.6122936268581878,
              0.40103659193712204
            ]
          ]
        ]
      },
      "properties": {
        "category": "person",
        "confidence": 0.25994640588760376,
        "class_id": 0,
        "bbox": [
          1297.4501953125,
          530.5714111328125,
          1309.8477783203125,
          540.0908813476562
        ]
      }
    }
  ],
  "metadata": {
    "model": "zero_shot_coco",
    "num_detections": 2,
    "image_path": "/tmp/tmpyc278623.png"
  }
}