{
  "type": "FeatureCollection",
  "features": [
    {
      "type": "Feature",
      "geometry": {
        "type": "Polygon",
        "coordinates": [
          [
            [
              0.01652413502458925,
              0.1157335705227322
            ],
            [
              0.9187861831229875,
              0.1157335705227322
            ],
            [
              0.9187861831229875,
              0.9448072645399306
            ],
            [
              0.01652413502458925,
              0.9448072645399306
            ],
            [
              0.01652413502458925,
              0.1157335705227322
            ]
          ]
        ]
      },
      "properties": {
        "category": "airplane",
        "confidence": 0.9558470249176025,
        "class_id": 5,
        "bbox": [
          35.92346954345703,
          116.65943908691406,
          1997.441162109375,
          952.36572265625
        ]
      }
    },
    {
      "type": "Feature",
      "geometry": {
        "type": "Polygon",
        "coordinates": [
          [
            [
              0.37341802714610167,
              0.9014988248310392
            ],
            [
              0.4757752194795021,
              0.9014988248310392
            ],
            [
              0.4757752194795021,
              0.9981702774290054
            ],
            [
              0.37341802714610167,
              0.9981702774290054
            ],
            [
              0.37341802714610167,
              0.9014988248310392
            ]
          ]
        ]
      },
      "properties": {
        "category": "cell phone",
        "confidence": 0.7107876539230347,
        "class_id": 77,
        "bbox": [
          811.810791015625,
          908.7108154296875,
          1034.3353271484375,
          1006.1556396484375
        ]
      }
    },
    {
      "type": "Feature",
      "geometry": {
        "type": "Polygon",
        "coordinates": [
          [
            [
              0.021221187209030195,
              0.09431836718604678
            ],
            [
              0.9047688727216536,
              0.09431836718604678
            ],
            [
              0.9047688727216536,
              0.4727464403424944
            ],
            [
              0.021221187209030195,
              0.4727464403424944
            ],
            [
              0.021221187209030195,
              0.09431836718604678
            ]
          ]
        ]
      },
      "properties": {
        "category": "airplane",
        "confidence": 0.6632241010665894,
        "class_id": 5,
        "bbox": [
          46.13486099243164,
          95.07291412353516,
          1966.967529296875,
          476.5284118652344
        ]
      }
    },
    {
      "type": "Feature",
      "geometry": {
        "type": "Polygon",
        "coordinates": [
          [
            [
              0.4507998525273833,
              0.6656112670898438
            ],
            [
              0.4982473869990513,
              0.6656112670898438
            ],
            [
              0.4982473869990513,
              0.7339573209247892
            ],
            [
              0.4507998525273833,
              0.7339573209247892
            ],
            [
              0.4507998525273833,
              0.6656112670898438
            ]
          ]
        ]
      },
      "properties": {
        "category": "car",
        "confidence": 0.5129141211509705,
        "class_id": 3,
        "bbox": [
          980.0388793945312,
          670.9361572265625,
          1083.1898193359375,
          739.8289794921875
        ]
      }
    },
    {
      "type": "Feature",
      "geometry": {
        "type": "Polygon",
        "coordinates": [
          [
            [
              0.424061653256526,
              0.18992661672925193
            ],
            [
              0.9487266505433533,
              0.18992661672925193
            ],
            [
              0.9487266505433533,
              0.9379791380867125
            ],
            [
              0.424061653256526,
              0.9379791380867125
            ],
            [
              0.424061653256526,
              0.18992661672925193
            ]
          ]
        ]
      },
      "properties": {
        "category": "airplane",
        "confidence": 0.49440738558769226,
        "class_id": 5,
        "bbox": [
          921.9100341796875,
          191.44602966308594,
          2062.53173828125,
          945.4829711914062
        ]
      }
    },
    {
      "type": "Feature",
      "geometry": {
        "type": "Polygon",
        "coordinates": [
          [
            [
              0.018375680988385466,
              0.16599205562046596
            ],
            [
              0.734461920351311,
              0.16599205562046596
            ],
            [
              0.734461920351311,
              0.6595899793836806
            ],
            [
              0.018375680988385466,
              0.6595899793836806
            ],
            [
              0.018375680988385466,
              0.16599205562046596
            ]
          ]
        ]
      },
      "properties": {
        "category": "airplane",
        "confidence": 0.44164302945137024,
        "class_id": 5,
        "bbox": [
          39.94873046875,
          167.3199920654297,
          1596.72021484375,
          664.86669921875
        ]
      }
    },
    {
      "type": "Feature",
      "geometry": {
        "type": "Polygon",
        "coordinates": [
          [
            [
              0.6391329234525931,
              0.8938005235460069
            ],
            [
              0.8604034451903174,
              0.8938005235460069
            ],
            [
              0.8604034451903174,
              0.99698729742141
            ],
            [
              0.6391329234525931,
              0.99698729742141
            ],
            [
              0.6391329234525931,
              0.8938005235460069
            ]
          ]
        ]
      },
      "properties": {
        "category": "skateboard",
        "confidence": 0.4223214387893677,
        "class_id": 41,
        "bbox": [
          1389.4749755859375,
          900.950927734375,
          1870.51708984375,
          1004.9631958007812
        ]
      }
    },
    {
      "type": "Feature",
      "geometry": {
        "type": "Polygon",
        "coordinates": [
          [
            [
              0.01774335017199898,
              0.1711222936236669
            ],
            [
              0.6074212573489248,
              0.1711222936236669
            ],
            [
              0.6074212573489248,
              0.3971741994222005
            ],
            [
              0.01774335017199898,
              0.3971741994222005
            ],
            [
              0.01774335017199898,
              0.1711222936236669
            ]
          ]
        ]
      },
      "properties": {
        "category": "airplane",
        "confidence": 0.40132224559783936,
        "class_id": 5,
        "bbox": [
          38.57404327392578,
          172.49127197265625,
          1320.5338134765625,
          400.3515930175781
        ]
      }
    },
    {
      "type": "Feature",
      "geometry": {
        "type": "Polygon",
        "coordinates": [
          [
            [
              0.7904393565468318,
              0.3198794713096013
            ],
            [
              0.9994813976972171,
              0.3198794713096013
            ],
            [
              0.9994813976972171,
              0.5802531166682168
            ],
            [
              0.7904393565468318,
              0.5802531166682168
            ],
            [
              0.7904393565468318,
              0.3198794713096013
            ]
          ]
        ]
      },
      "properties": {
        "category": "bench",
        "confidence": 0.3519400656223297,
        "class_id": 15,
        "bbox": [
          1718.4151611328125,
          322.4385070800781,
          2172.87255859375,
          584.8951416015625
        ]
      }
    },
    {
      "type": "Feature",
      "geometry": {
        "type": "Polygon",
        "coordinates": [
          [
            [
              0.5273157311012246,
              0.2849587637280661
            ],
            [
              0.7655187078649667,
              0.2849587637280661
            ],
            [
              0.7655187078649667,
              0.7665386502704923
            ],
            [
              0.5273157311012246,
              0.7665386502704923
            ],
            [
              0.5273157311012246,
              0.2849587637280661
            ]
          ]
        ]
      },
      "properties": {
        "category": "airplane",
        "confidence": 0.20431695878505707,
        "class_id": 5,
        "bbox": [
          1146.3843994140625,
          287.2384338378906,
          1664.2376708984375,
          772.6709594726562
        ]
      }
    }
  ],
  "metadata": {
    "model": "zero_shot_coco",
    "num_detections": 10,
    "image_path": "/tmp/tmpnyr0pc2e.png"
  }
}