{
  "type": "FeatureCollection",
  "features": [
    {
      "type": "Feature",
      "geometry": {
        "type": "Polygon",
        "coordinates": [
          [
            [
              0.3096950218670941,
              0.18331968000416313
            ],
            [
              0.5429224261693595,
              0.18331968000416313
            ],
            [
              0.5429224261693595,
              0.7490398150362576
            ],
            [
              0.3096950218670941,
              0.7490398150362576
            ],
            [
              0.3096950218670941,
              0.18331968000416313
            ]
          ]
        ]
      },
      "properties": {
        "category": "person",
        "confidence": 0.8443835973739624,
        "class_id": 1,
        "bbox": [
          673.2769775390625,
          242.5319366455078,
          1180.3133544921875,
          990.9796752929688
        ]
      }
    }
  ],
  "metadata": {
    "model": "zero_shot_coco",
    "num_detections": 1,
    "image_path": "/tmp/tmprcvw31ry.png"
  }
}