{
  "type": "FeatureCollection",
  "features": [
    {
      "type": "Feature",
      "geometry": {
        "type": "Polygon",
        "coordinates": [
          [
            [
              0.6125498388267594,
              0.8424866691468254
            ],
            [
              0.6313892634724299,
              0.8424866691468254
            ],
            [
              0.6313892634724299,
              0.8733281072845805
            ],
            [
              0.6125498388267594,
              0.8733281072845805
            ],
            [
              0.6125498388267594,
              0.8424866691468254
            ]
          ]
        ]
      },
      "properties": {
        "category": "N/A",
        "confidence": 0.9124360084533691,
        "class_id": 29,
        "bbox": [
          1331.683349609375,
          1114.60986328125,
          1372.6402587890625,
          1155.4130859375
        ]
      }
    },
    {
      "type": "Feature",
      "geometry": {
        "type": "Polygon",
        "coordinates": [
          [
            [
              0.06074180006432555,
              0.15351857295652635
            ],
            [
              0.08025043561245832,
              0.15351857295652635
            ],
            [
              0.08025043561245832,
              0.1731334060588211
            ],
            [
              0.06074180006432555,
              0.1731334060588211
            ],
            [
              0.06074180006432555,
              0.15351857295652635
            ]
          ]
        ]
      },
      "properties": {
        "category": "bench",
        "confidence": 0.6793803572654724,
        "class_id": 14,
        "bbox": [
          132.05267333984375,
          203.10507202148438,
          174.46444702148438,
          229.0554962158203
        ]
      }
    },
    {
      "type": "Feature",
      "geometry": {
        "type": "Polygon",
        "coordinates": [
          [
            [
              0.0,
              0.04918437678076873
            ],
            [
              0.26703919636183304,
              0.04918437678076873
            ],
            [
              0.26703919636183304,
              0.6177440132954224
            ],
            [
              0.0,
              0.6177440132954224
            ],
            [
              0.0,
              0.04918437678076873
            ]
          ]
        ]
      },
      "properties": {
        "category": "carrot",
        "confidence": 0.3638156056404114,
        "class_id": 56,
        "bbox": [
          0.0,
          65.07093048095703,
          580.543212890625,
          817.2753295898438
        ]
      }
    }
  ],
  "metadata": {
    "model": "zero_shot_coco",
    "num_detections": 3,
    "image_path": "/tmp/tmpokds3vbt.png"
  }
}