{
  "type": "FeatureCollection",
  "features": [
    {
      "type": "Feature",
      "geometry": {
        "type": "Polygon",
        "coordinates": [
          [
            [
              0.23413049439936465,
              0.15550966111440506
            ],
            [
              0.27347253766099355,
              0.15550966111440506
            ],
            [
              0.27347253766099355,
              0.25891422090076266
            ],
            [
              0.23413049439936465,
              0.25891422090076266
            ],
            [
              0.23413049439936465,
              0.15550966111440506
            ]
          ]
        ]
      },
      "properties": {
        "category": "clock",
        "confidence": 0.8347551226615906,
        "class_id": 85,
        "bbox": [
          508.99969482421875,
          156.7537384033203,
          594.529296875,
          260.98553466796875
        ]
      }
    },
    {
      "type": "Feature",
      "geometry": {
        "type": "Polygon",
        "coordinates": [
          [
            [
              0.007142441143327167,
              0.08641288394019717
            ],
            [
              0.2040463669539156,
              0.08641288394019717
            ],
            [
              0.2040463669539156,
              0.4679923587375217
            ],
            [
              0.007142441143327167,
              0.4679923587375217
            ],
            [
              0.007142441143327167,
              0.08641288394019717
            ]
          ]
        ]
      },
      "properties": {
        "category": "motorcycle",
        "confidence": 0.4962327480316162,
        "class_id": 4,
        "bbox": [
          15.527667045593262,
          87.10418701171875,
          443.5968017578125,
          471.7362976074219
        ]
      }
    },
    {
      "type": "Feature",
      "geometry": {
        "type": "Polygon",
        "coordinates": [
          [
            [
              0.3059693505814455,
              0.757500239780971
            ],
            [
              0.3341067541380376,
              0.757500239780971
            ],
            [
              0.3341067541380376,
              0.8670915876116071
            ],
            [
              0.3059693505814455,
              0.8670915876116071
            ],
            [
              0.3059693505814455,
              0.757500239780971
            ]
          ]
        ]
      },
      "properties": {
        "category": "traffic light",
        "confidence": 0.4130975604057312,
        "class_id": 10,
        "bbox": [
          665.1773681640625,
          763.5602416992188,
          726.3480834960938,
          874.0283203125
        ]
      }
    }
  ],
  "metadata": {
    "model": "zero_shot_coco",
    "num_detections": 3,
    "image_path": "/tmp/tmpz0jfjom4.png"
  }
}