{
  "type": "FeatureCollection",
  "features": [
    {
      "type": "Feature",
      "geometry": {
        "type": "Polygon",
        "coordinates": [
          [
            [
              0.3705797469970358,
              0.8710395887955876
            ],
            [
              0.39567962689690006,
              0.8710395887955876
            ],
            [
              0.39567962689690006,
              0.8902076726958145
            ],
            [
              0.3705797469970358,
              0.8902076726958145
            ],
            [
              0.3705797469970358,
              0.8710395887955876
            ]
          ]
        ]
      },
      "properties": {
        "category": "car",
        "confidence": 0.5333641767501831,
        "class_id": 2,
        "bbox": [
          785.2584838867188,
          1152.3853759765625,
          838.4451293945312,
          1177.7447509765625
        ]
      }
    },
    {
      "type": "Feature",
      "geometry": {
        "type": "Polygon",
        "coordinates": [
          [
            [
              0.2431852044559639,
              0.5550764088187359
            ],
            [
              0.900339642354147,
              0.5550764088187359
            ],
            [
              0.900339642354147,
              0.9932633426634543
            ],
            [
              0.2431852044559639,
              0.9932633426634543
            ],
            [
              0.2431852044559639,
              0.5550764088187359
            ]
          ]
        ]
      },
      "properties": {
        "category": "train",
        "confidence": 0.44815120100975037,
        "class_id": 6,
        "bbox": [
          515.3094482421875,
          734.3660888671875,
          1907.8197021484375,
          1314.08740234375
        ]
      }
    },
    {
      "type": "Feature",
      "geometry": {
        "type": "Polygon",
        "coordinates": [
          [
            [
              0.4955400842267874,
              0.2342458019991851
            ],
            [
              0.5039851722879306,
              0.2342458019991851
            ],
            [
              0.5039851722879306,
              0.2477043999565972
            ],
            [
              0.4955400842267874,
              0.2477043999565972
            ],
            [
              0.4955400842267874,
              0.2342458019991851
            ]
          ]
        ]
      },
      "properties": {
        "category": "bench",
        "confidence": 0.3681035041809082,
        "class_id": 14,
        "bbox": [
          1050.0494384765625,
          309.9071960449219,
          1067.944580078125,
          327.7129211425781
        ]
      }
    },
    {
      "type": "Feature",
      "geometry": {
        "type": "Polygon",
        "coordinates": [
          [
            [
              0.14241161049396828,
              0.5461333974779148
            ],
            [
              1.0,
              0.5461333974779148
            ],
            [
              1.0,
              1.0
            ],
            [
              0.14241161049396828,
              1.0
            ],
            [
              0.14241161049396828,
              0.5461333974779148
            ]
          ]
        ]
      },
      "properties": {
        "category": "boat",
        "confidence": 0.3455656170845032,
        "class_id": 8,
        "bbox": [
          301.77020263671875,
          722.5344848632812,
          2119.0,
          1323.0
        ]
      }
    },
    {
      "type": "Feature",
      "geometry": {
        "type": "Polygon",
        "coordinates": [
          [
            [
              0.28269214639128126,
              0.543140598795942
            ],
            [
              0.9071331807272003,
              0.543140598795942
            ],
            [
              0.9071331807272003,
              0.9969129036163077
            ],
            [
              0.28269214639128126,
              0.9969129036163077
            ],
            [
              0.28269214639128126,
              0.543140598795942
            ]
          ]
        ]
      },
      "properties": {
        "category": "car",
        "confidence": 0.22570033371448517,
        "class_id": 2,
        "bbox": [
          599.024658203125,
          718.5750122070312,
          1922.2152099609375,
          1318.915771484375
        ]
      }
    },
    {
      "type": "Feature",
      "geometry": {
        "type": "Polygon",
        "coordinates": [
          [
            [
              0.2785497344063385,
              0.5539932308643943
            ],
            [
              0.9089901011864382,
              0.5539932308643943
            ],
            [
              0.9089901011864382,
              0.9967010567247733
            ],
            [
              0.2785497344063385,
              0.9967010567247733
            ],
            [
              0.2785497344063385,
              0.5539932308643943
            ]
          ]
        ]
      },
      "properties": {
        "category": "truck",
        "confidence": 0.12676334381103516,
        "class_id": 7,
        "bbox": [
          590.2468872070312,
          732.9330444335938,
          1926.1500244140625,
          1318.635498046875
        ]
      }
    },
    {
      "type": "Feature",
      "geometry": {
        "type": "Polygon",
        "coordinates": [
          [
            [
              0.02315124108466184,
              0.5687720889136905
            ],
            [
              0.26117865079526015,
              0.5687720889136905
            ],
            [
              0.26117865079526015,
              0.9948708324475624
            ],
            [
              0.02315124108466184,
              0.9948708324475624
            ],
            [
              0.02315124108466184,
              0.5687720889136905
            ]
          ]
        ]
      },
      "properties": {
        "category": "boat",
        "confidence": 0.10057160258293152,
        "class_id": 8,
        "bbox": [
          49.05747985839844,
          752.4854736328125,
          553.4375610351562,
          1316.214111328125
        ]
      }
    }
  ],
  "metadata": {
    "model": "zero_shot_coco",
    "num_detections": 7,
    "image_path": "/tmp/tmpb9pda3f9.png"
  }
}