{
  "type": "FeatureCollection",
  "features": [
    {
      "type": "Feature",
      "geometry": {
        "type": "Polygon",
        "coordinates": [
          [
            [
              0.6861266809093262,
              0.25764438805035905
            ],
            [
              0.770019755850391,
              0.25764438805035905
            ],
            [
              0.770019755850391,
              0.46229028449487436
            ],
            [
              0.6861266809093262,
              0.46229028449487436
            ],
            [
              0.6861266809093262,
              0.25764438805035905
            ]
          ]
        ]
      },
      "properties": {
        "category": "person",
        "confidence": 0.7953874468803406,
        "class_id": 0,
        "bbox": [
          1491.639404296875,
          340.863525390625,
          1674.02294921875,
          611.6100463867188
        ]
      }
    }
  ],
  "metadata": {
    "model": "zero_shot_coco",
    "num_detections": 1,
    "image_path": "/tmp/tmpxgc0y0iv.png"
  }
}