{
  "type": "FeatureCollection",
  "features": [
    {
      "type": "Feature",
      "geometry": {
        "type": "Polygon",
        "coordinates": [
          [
            [
              0.0,
              0.02509460391551369
            ],
            [
              0.1128068737625907,
              0.02509460391551369
            ],
            [
              0.1128068737625907,
              0.49031603201176305
            ],
            [
              0.0,
              0.49031603201176305
            ],
            [
              0.0,
              0.02509460391551369
            ]
          ]
        ]
      },
      "properties": {
        "category": "pizza",
        "confidence": 0.7911041975021362,
        "class_id": 58,
        "bbox": [
          0.0,
          33.20016098022461,
          239.0377655029297,
          648.6881103515625
        ]
      }
    },
    {
      "type": "Feature",
      "geometry": {
        "type": "Polygon",
        "coordinates": [
          [
            [
              0.720108269857539,
              0.5658237171821854
            ],
            [
              0.7382379867604117,
              0.5658237171821854
            ],
            [
              0.7382379867604117,
              0.6131130919164541
            ],
            [
              0.720108269857539,
              0.6131130919164541
            ],
            [
              0.720108269857539,
              0.5658237171821854
            ]
          ]
        ]
      },
      "properties": {
        "category": "person",
        "confidence": 0.6714867353439331,
        "class_id": 0,
        "bbox": [
          1525.909423828125,
          748.5847778320312,
          1564.3262939453125,
          811.1486206054688
        ]
      }
    },
    {
      "type": "Feature",
      "geometry": {
        "type": "Polygon",
        "coordinates": [
          [
            [
              0.5079416560361609,
              0.20270472012589758
            ],
            [
              0.5837030199239028,
              0.20270472012589758
            ],
            [
              0.5837030199239028,
              0.3603864166651904
            ],
            [
              0.5079416560361609,
              0.3603864166651904
            ],
            [
              0.5079416560361609,
              0.20270472012589758
            ]
          ]
        ]
      },
      "properties": {
        "category": "microwave",
        "confidence": 0.6175826191902161,
        "class_id": 77,
        "bbox": [
          1076.328369140625,
          268.1783447265625,
          1236.86669921875,
          476.7912292480469
        ]
      }
    }
  ],
  "metadata": {
    "model": "zero_shot_coco",
    "num_detections": 3,
    "image_path": "/tmp/tmpetb2npv8.png"
  }
}