{
  "type": "FeatureCollection",
  "features": [
    {
      "type": "Feature",
      "geometry": {
        "type": "Polygon",
        "coordinates": [
          [
            [
              0.6645954270698148,
              0.5282695190706491
            ],
            [
              0.6856259125029495,
              0.5282695190706491
            ],
            [
              0.6856259125029495,
              0.5668145350588152
            ],
            [
              0.6645954270698148,
              0.5668145350588152
            ],
            [
              0.6645954270698148,
              0.5282695190706491
            ]
          ]
        ]
      },
      "properties": {
        "category": "car",
        "confidence": 0.5470631718635559,
        "class_id": 2,
        "bbox": [
          1408.2777099609375,
          698.9005737304688,
          1452.84130859375,
          749.8956298828125
        ]
      }
    },
    {
      "type": "Feature",
      "geometry": {
        "type": "Polygon",
        "coordinates": [
          [
            [
              0.6775495701097216,
              0.21222604303223025
            ],
            [
              0.6901794980865089,
              0.21222604303223025
            ],
            [
              0.6901794980865089,
              0.2500206449224655
            ],
            [
              0.6775495701097216,
              0.2500206449224655
            ],
            [
              0.6775495701097216,
              0.21222604303223025
            ]
          ]
        ]
      },
      "properties": {
        "category": "person",
        "confidence": 0.5154463648796082,
        "class_id": 0,
        "bbox": [
          1435.7275390625,
          280.7750549316406,
          1462.4903564453125,
          330.7773132324219
        ]
      }
    },
    {
      "type": "Feature",
      "geometry": {
        "type": "Polygon",
        "coordinates": [
          [
            [
              0.017916795947519097,
              0.008116531083733407
            ],
            [
              0.7363297380102642,
              0.008116531083733407
            ],
            [
              0.7363297380102642,
              0.8833526357591648
            ],
            [
              0.017916795947519097,
              0.8833526357591648
            ],
            [
              0.017916795947519097,
              0.008116531083733407
            ]
          ]
        ]
      },
      "properties": {
        "category": "boat",
        "confidence": 0.41324853897094727,
        "class_id": 8,
        "bbox": [
          37.96569061279297,
          10.738170623779297,
          1560.28271484375,
          1168.675537109375
        ]
      }
    },
    {
      "type": "Feature",
      "geometry": {
        "type": "Polygon",
        "coordinates": [
          [
            [
              0.6666461391908034,
              0.5432885502291194
            ],
            [
              0.6840516144850165,
              0.5432885502291194
            ],
            [
              0.6840516144850165,
              0.5702119280872071
            ],
            [
              0.6666461391908034,
              0.5702119280872071
            ],
            [
              0.6666461391908034,
              0.5432885502291194
            ]
          ]
        ]
      },
      "properties": {
        "category": "car",
        "confidence": 0.33734527230262756,
        "class_id": 2,
        "bbox": [
          1412.6231689453125,
          718.770751953125,
          1449.50537109375,
          754.390380859375
        ]
      }
    },
    {
      "type": "Feature",
      "geometry": {
        "type": "Polygon",
        "coordinates": [
          [
            [
              0.0013360077055516587,
              0.041896514431239075
            ],
            [
              0.8088653694070022,
              0.041896514431239075
            ],
            [
              0.8088653694070022,
              0.8826868312429138
            ],
            [
              0.0013360077055516587,
              0.8826868312429138
            ],
            [
              0.0013360077055516587,
              0.041896514431239075
            ]
          ]
        ]
      },
      "properties": {
        "category": "airplane",
        "confidence": 0.24755530059337616,
        "class_id": 4,
        "bbox": [
          2.831000328063965,
          55.4290885925293,
          1713.9857177734375,
          1167.794677734375
        ]
      }
    },
    {
      "type": "Feature",
      "geometry": {
        "type": "Polygon",
        "coordinates": [
          [
            [
              0.6116010693797193,
              0.23214830094364133
            ],
            [
              0.6270086010315892,
              0.23214830094364133
            ],
            [
              0.6270086010315892,
              0.26555775983353413
            ],
            [
              0.6116010693797193,
              0.26555775983353413
            ],
            [
              0.6116010693797193,
              0.23214830094364133
            ]
          ]
        ]
      },
      "properties": {
        "category": "car",
        "confidence": 0.2446529120206833,
        "class_id": 2,
        "bbox": [
          1295.982666015625,
          307.1322021484375,
          1328.6312255859375,
          351.3329162597656
        ]
      }
    },
    {
      "type": "Feature",
      "geometry": {
        "type": "Polygon",
        "coordinates": [
          [
            [
              0.7205686690729708,
              0.46101306733630953
            ],
            [
              0.7411717643935819,
              0.46101306733630953
            ],
            [
              0.7411717643935819,
              0.49207253430886244
            ],
            [
              0.7205686690729708,
              0.49207253430886244
            ],
            [
              0.7205686690729708,
              0.46101306733630953
            ]
          ]
        ]
      },
      "properties": {
        "category": "car",
        "confidence": 0.19179187715053558,
        "class_id": 2,
        "bbox": [
          1526.885009765625,
          609.9202880859375,
          1570.54296875,
          651.011962890625
        ]
      }
    },
    {
      "type": "Feature",
      "geometry": {
        "type": "Polygon",
        "coordinates": [
          [
            [
              0.0008624313349091484,
              0.4639229633910856
            ],
            [
              0.08230356069711539,
              0.4639229633910856
            ],
            [
              0.08230356069711539,
              0.520762287119709
            ],
            [
              0.0008624313349091484,
              0.520762287119709
            ],
            [
              0.0008624313349091484,
              0.4639229633910856
            ]
          ]
        ]
      },
      "properties": {
        "category": "bench",
        "confidence": 0.15323856472969055,
        "class_id": 14,
        "bbox": [
          1.8274919986724854,
          613.7700805664062,
          174.4012451171875,
          688.968505859375
        ]
      }
    },
    {
      "type": "Feature",
      "geometry": {
        "type": "Polygon",
        "coordinates": [
          [
            [
              0.1958808988937515,
              0.3918556680484694
            ],
            [
              0.6619788363836125,
              0.3918556680484694
            ],
            [
              0.6619788363836125,
              0.8373731871220711
            ],
            [
              0.1958808988937515,
              0.8373731871220711
            ],
            [
              0.1958808988937515,
              0.3918556680484694
            ]
          ]
        ]
      },
      "properties": {
        "category": "boat",
        "confidence": 0.14495815336704254,
        "class_id": 8,
        "bbox": [
          415.0716247558594,
          518.425048828125,
          1402.733154296875,
          1107.8447265625
        ]
      }
    },
    {
      "type": "Feature",
      "geometry": {
        "type": "Polygon",
        "coordinates": [
          [
            [
              0.6716853560789288,
              0.5790643785726096
            ],
            [
              0.6989599194600932,
              0.5790643785726096
            ],
            [
              0.6989599194600932,
              0.6317441310291477
            ],
            [
              0.6716853560789288,
              0.6317441310291477
            ],
            [
              0.6716853560789288,
              0.5790643785726096
            ]
          ]
        ]
      },
      "properties": {
        "category": "car",
        "confidence": 0.14420157670974731,
        "class_id": 2,
        "bbox": [
          1423.30126953125,
          766.1021728515625,
          1481.0960693359375,
          835.7974853515625
        ]
      }
    },
    {
      "type": "Feature",
      "geometry": {
        "type": "Polygon",
        "coordinates": [
          [
            [
              0.7216391894208648,
              0.22179820550181878
            ],
            [
              0.8224106807087659,
              0.22179820550181878
            ],
            [
              0.8224106807087659,
              0.27620645697515117
            ],
            [
              0.7216391894208648,
              0.27620645697515117
            ],
            [
              0.7216391894208648,
              0.22179820550181878
            ]
          ]
        ]
      },
      "properties": {
        "category": "N/A",
        "confidence": 0.1404494196176529,
        "class_id": 25,
        "bbox": [
          1529.1534423828125,
          293.43902587890625,
          1742.688232421875,
          365.421142578125
        ]
      }
    },
    {
      "type": "Feature",
      "geometry": {
        "type": "Polygon",
        "coordinates": [
          [
            [
              0.7608196119926852,
              0.5976882669300358
            ],
            [
              0.9915401068089311,
              0.5976882669300358
            ],
            [
              0.9915401068089311,
              0.9910186513841648
            ],
            [
              0.7608196119926852,
              0.9910186513841648
            ],
            [
              0.7608196119926852,
              0.5976882669300358
            ]
          ]
        ]
      },
      "properties": {
        "category": "pizza",
        "confidence": 0.12704473733901978,
        "class_id": 58,
        "bbox": [
          1612.1767578125,
          790.7415771484375,
          2101.073486328125,
          1311.11767578125
        ]
      }
    },
    {
      "type": "Feature",
      "geometry": {
        "type": "Polygon",
        "coordinates": [
          [
            [
              0.1877580816422841,
              0.6028021180260299
            ],
            [
              0.6675498857988733,
              0.6028021180260299
            ],
            [
              0.6675498857988733,
              0.8240717673788265
            ],
            [
              0.1877580816422841,
              0.8240717673788265
            ],
            [
              0.1877580816422841,
              0.6028021180260299
            ]
          ]
        ]
      },
      "properties": {
        "category": "boat",
        "confidence": 0.11931709945201874,
        "class_id": 8,
        "bbox": [
          397.859375,
          797.5072021484375,
          1414.5382080078125,
          1090.2469482421875
        ]
      }
    },
    {
      "type": "Feature",
      "geometry": {
        "type": "Polygon",
        "coordinates": [
          [
            [
              0.16851802320061793,
              0.6000100479644983
            ],
            [
              0.19837079626482126,
              0.6000100479644983
            ],
            [
              0.19837079626482126,
              0.6385631373860308
            ],
            [
              0.16851802320061793,
              0.6385631373860308
            ],
            [
              0.16851802320061793,
              0.6000100479644983
            ]
          ]
        ]
      },
      "properties": {
        "category": "bench",
        "confidence": 0.11630997061729431,
        "class_id": 14,
        "bbox": [
          357.0896911621094,
          793.8132934570312,
          420.34771728515625,
          844.8190307617188
        ]
      }
    },
    {
      "type": "Feature",
      "geometry": {
        "type": "Polygon",
        "coordinates": [
          [
            [
              0.7205355447550437,
              0.4609610744254299
            ],
            [
              0.7412659526715137,
              0.4609610744254299
            ],
            [
              0.7412659526715137,
              0.49214662536021353
            ],
            [
              0.7205355447550437,
              0.49214662536021353
            ],
            [
              0.7205355447550437,
              0.4609610744254299
            ]
          ]
        ]
      },
      "properties": {
        "category": "truck",
        "confidence": 0.11224310845136642,
        "class_id": 7,
        "bbox": [
          1526.8148193359375,
          609.8515014648438,
          1570.7425537109375,
          651.1099853515625
        ]
      }
    },
    {
      "type": "Feature",
      "geometry": {
        "type": "Polygon",
        "coordinates": [
          [
            [
              0.6680939311180096,
              0.2631292018760629
            ],
            [
              0.6829208366822499,
              0.2631292018760629
            ],
            [
              0.6829208366822499,
              0.2839445199195129
            ],
            [
              0.6680939311180096,
              0.2839445199195129
            ],
            [
              0.6680939311180096,
              0.2631292018760629
            ]
          ]
        ]
      },
      "properties": {
        "category": "car",
        "confidence": 0.10770516842603683,
        "class_id": 2,
        "bbox": [
          1415.6910400390625,
          348.11993408203125,
          1447.1092529296875,
          375.6585998535156
        ]
      }
    }
  ],
  "metadata": {
    "model": "zero_shot_coco",
    "num_detections": 16,
    "image_path": "/tmp/tmpik3k8id2.png"
  }
}