{
  "type": "FeatureCollection",
  "features": [
    {
      "type": "Feature",
      "geometry": {
        "type": "Polygon",
        "coordinates": [
          [
            [
              0.8906994289021944,
              0.5516569637837774
            ],
            [
              0.9977910976580935,
              0.5516569637837774
            ],
            [
              0.9977910976580935,
              0.6140199460860734
            ],
            [
              0.8906994289021944,
              0.6140199460860734
            ],
            [
              0.8906994289021944,
              0.5516569637837774
            ]
          ]
        ]
      },
      "properties": {
        "category": "airplane",
        "confidence": 0.5225793719291687,
        "class_id": 4,
        "bbox": [
          1887.39208984375,
          729.8421630859375,
          2114.3193359375,
          812.348388671875
        ]
      }
    }
  ],
  "metadata": {
    "model": "zero_shot_coco",
    "num_detections": 1,
    "image_path": "/tmp/tmpeiyt751x.png"
  }
}