{
  "type": "FeatureCollection",
  "features": [
    {
      "type": "Feature",
      "geometry": {
        "type": "Polygon",
        "coordinates": [
          [
            [
              0.631369105587339,
              0.4066680121043372
            ],
            [
              0.6774993868409326,
              0.4066680121043372
            ],
            [
              0.6774993868409326,
              0.49732953026181176
            ],
            [
              0.631369105587339,
              0.49732953026181176
            ],
            [
              0.631369105587339,
              0.4066680121043372
            ]
          ]
        ]
      },
      "properties": {
        "category": "person",
        "confidence": 0.6027246713638306,
        "class_id": 1,
        "bbox": [
          1372.596435546875,
          409.9213562011719,
          1472.8836669921875,
          501.30816650390625
        ]
      }
    },
    {
      "type": "Feature",
      "geometry": {
        "type": "Polygon",
        "coordinates": [
          [
            [
              0.11492079776037474,
              0.006878380737607441
            ],
            [
              0.2394339272815806,
              0.006878380737607441
            ],
            [
              0.2394339272815806,
              0.4267814272925967
            ],
            [
              0.11492079776037474,
              0.4267814272925967
            ],
            [
              0.11492079776037474,
              0.006878380737607441
            ]
          ]
        ]
      },
      "properties": {
        "category": "traffic light",
        "confidence": 0.5968648791313171,
        "class_id": 10,
        "bbox": [
          249.8378143310547,
          6.933407783508301,
          520.5293579101562,
          430.1956787109375
        ]
      }
    },
    {
      "type": "Feature",
      "geometry": {
        "type": "Polygon",
        "coordinates": [
          [
            [
              0.890100670387247,
              0.08069309355720641
            ],
            [
              0.9119496841220102,
              0.08069309355720641
            ],
            [
              0.9119496841220102,
              0.17099182189457
            ],
            [
              0.890100670387247,
              0.17099182189457
            ],
            [
              0.890100670387247,
              0.08069309355720641
            ]
          ]
        ]
      },
      "properties": {
        "category": "cell phone",
        "confidence": 0.35907623171806335,
        "class_id": 77,
        "bbox": [
          1935.078857421875,
          81.33863830566406,
          1982.57861328125,
          172.35975646972656
        ]
      }
    },
    {
      "type": "Feature",
      "geometry": {
        "type": "Polygon",
        "coordinates": [
          [
            [
              0.49630481821742756,
              0.32989786541651167
            ],
            [
              0.5432118237731428,
              0.32989786541651167
            ],
            [
              0.5432118237731428,
              0.4261985354953342
            ],
            [
              0.49630481821742756,
              0.4261985354953342
            ],
            [
              0.49630481821742756,
              0.32989786541651167
            ]
          ]
        ]
      },
      "properties": {
        "category": "car",
        "confidence": 0.3190159499645233,
        "class_id": 3,
        "bbox": [
          1078.9666748046875,
          332.53704833984375,
          1180.9425048828125,
          429.6081237792969
        ]
      }
    }
  ],
  "metadata": {
    "model": "zero_shot_coco",
    "num_detections": 4,
    "image_path": "/tmp/tmp96g3a22y.png"
  }
}