{
  "type": "FeatureCollection",
  "features": [
    {
      "type": "Feature",
      "geometry": {
        "type": "Polygon",
        "coordinates": [
          [
            [
              0.7330828059557869,
              0.9006832062251984
            ],
            [
              0.8670562124859899,
              0.9006832062251984
            ],
            [
              0.8670562124859899,
              0.9977017933909675
            ],
            [
              0.7330828059557869,
              0.9977017933909675
            ],
            [
              0.7330828059557869,
              0.9006832062251984
            ]
          ]
        ]
      },
      "properties": {
        "category": "car",
        "confidence": 0.5185455083847046,
        "class_id": 2,
        "bbox": [
          1553.4024658203125,
          1191.6038818359375,
          1837.2921142578125,
          1319.95947265625
        ]
      }
    },
    {
      "type": "Feature",
      "geometry": {
        "type": "Polygon",
        "coordinates": [
          [
            [
              0.01983468675455883,
              0.5443233337171675
            ],
            [
              0.7852091336936645,
              0.5443233337171675
            ],
            [
              0.7852091336936645,
              0.9750125853292706
            ],
            [
              0.01983468675455883,
              0.9750125853292706
            ],
            [
              0.01983468675455883,
              0.5443233337171675
            ]
          ]
        ]
      },
      "properties": {
        "category": "boat",
        "confidence": 0.14213058352470398,
        "class_id": 8,
        "bbox": [
          42.029701232910156,
          720.1397705078125,
          1663.858154296875,
          1289.941650390625
        ]
      }
    }
  ],
  "metadata": {
    "model": "zero_shot_coco",
    "num_detections": 2,
    "image_path": "/tmp/tmpxr8i7shw.png"
  }
}