{
  "type": "FeatureCollection",
  "features": [
    {
      "type": "Feature",
      "geometry": {
        "type": "Polygon",
        "coordinates": [
          [
            [
              0.4554919184470663,
              0.40351051931449505
            ],
            [
              0.4710649015465561,
              0.40351051931449505
            ],
            [
              0.4710649015465561,
              0.4222391715766706
            ],
            [
              0.4554919184470663,
              0.4222391715766706
            ],
            [
              0.4554919184470663,
              0.40351051931449505
            ]
          ]
        ]
      },
      "properties": {
        "category": "car",
        "confidence": 0.8238784074783325,
        "class_id": 3,
        "bbox": [
          557.9776000976562,
          338.1418151855469,
          577.0545043945312,
          353.83642578125
        ]
      }
    },
    {
      "type": "Feature",
      "geometry": {
        "type": "Polygon",
        "coordinates": [
          [
            [
              0.45273018973214285,
              0.3791649939052245
            ],
            [
              0.4662627551020408,
              0.3791649939052245
            ],
            [
              0.4662627551020408,
              0.39350993081322716
            ],
            [
              0.45273018973214285,
              0.39350993081322716
            ],
            [
              0.45273018973214285,
              0.3791649939052245
            ]
          ]
        ]
      },
      "properties": {
        "category": "car",
        "confidence": 0.6326773166656494,
        "class_id": 3,
        "bbox": [
          554.594482421875,
          317.7402648925781,
          571.171875,
          329.7613220214844
        ]
      }
    },
    {
      "type": "Feature",
      "geometry": {
        "type": "Polygon",
        "coordinates": [
          [
            [
              0.43235366509885204,
              0.9070448408832413
            ],
            [
              0.4635521464445153,
              0.9070448408832413
            ],
            [
              0.4635521464445153,
              0.9662561530429594
            ],
            [
              0.43235366509885204,
              0.9662561530429594
            ],
            [
              0.43235366509885204,
              0.9070448408832413
            ]
          ]
        ]
      },
      "properties": {
        "category": "car",
        "confidence": 0.6022865772247314,
        "class_id": 3,
        "bbox": [
          529.6332397460938,
          760.1035766601562,
          567.8513793945312,
          809.72265625
        ]
      }
    }
  ],
  "metadata": {
    "model": "zero_shot_coco",
    "num_detections": 3,
    "image_path": "/tmp/tmp9uwchc6_.png"
  }
}