{
  "type": "FeatureCollection",
  "features": [
    {
      "type": "Feature",
      "geometry": {
        "type": "Polygon",
        "coordinates": [
          [
            [
              0.45459770476368444,
              0.25890582741343066
            ],
            [
              0.5864371797198424,
              0.25890582741343066
            ],
            [
              0.5864371797198424,
              0.577992641826696
            ],
            [
              0.45459770476368444,
              0.577992641826696
            ],
            [
              0.45459770476368444,
              0.25890582741343066
            ]
          ]
        ]
      },
      "properties": {
        "category": "person",
        "confidence": 0.9419551491737366,
        "class_id": 0,
        "bbox": [
          988.29541015625,
          342.53240966796875,
          1274.9144287109375,
          764.6842651367188
        ]
      }
    },
    {
      "type": "Feature",
      "geometry": {
        "type": "Polygon",
        "coordinates": [
          [
            [
              0.9326997281436867,
              0.6298475661966175
            ],
            [
              0.959514881123505,
              0.6298475661966175
            ],
            [
              0.959514881123505,
              0.6621662581048045
            ],
            [
              0.9326997281436867,
              0.6621662581048045
            ],
            [
              0.9326997281436867,
              0.6298475661966175
            ]
          ]
        ]
      },
      "properties": {
        "category": "frisbee",
        "confidence": 0.5005427002906799,
        "class_id": 33,
        "bbox": [
          2027.689208984375,
          833.288330078125,
          2085.9853515625,
          876.0459594726562
        ]
      }
    }
  ],
  "metadata": {
    "model": "zero_shot_coco",
    "num_detections": 2,
    "image_path": "/tmp/tmparc7lura.png"
  }
}